HORYU-4                 
1 41340U 16012D   20031.48677061  .00000458  00000-0  27946-4 0  9996
2 41340  31.0049 130.3455 0013894 220.1799 139.7809 15.01405814217126
E-ST@R-II               
1 41459U 16025D   20031.48247729  .00001138  00000-0  62048-4 0  9993
2 41459  98.0972 134.4193 0164805 316.2048  42.6196 15.06006274206673
AAUSAT 4                
1 41460U 16025E   20031.55733697  .00001719  00000-0  88930-4 0  9990
2 41460  98.0938 136.3662 0154598 306.2921  52.4141 15.08123320206859
DIWATA-1                
1 41463U 98067HT  20031.50137068  .00087857  14473-4  19025-3 0  9992
2 41463  51.6239 137.7889 0002130 325.9038 137.7207 15.98352764215819
BEESAT-4                
1 41619U 16040W   20030.14741480  .00001033  00000-0  45974-4 0  9996
2 41619  97.3397  92.8621 0009907 316.5581  43.4875 15.23642363188185
CANX-7                  
1 41788U 16059F   20031.48216957  .00006848  00000-0  98563-3 0  9997
2 41788  98.2535 116.0748 0022560  24.8040 335.4323 14.76522785179447
RAVAN                   
1 41849U 16067B   20031.25216722  .00000853  00000-0  76548-4 0  9999
2 41849  97.9265 138.8671 0007993 359.8551   0.2667 14.98442515175922
CELTEE 1                
1 41850U 16067C   20031.25647130 -.00000100  00000-0 -33708-5 0  9991
2 41850  97.9210 136.9932 0008714 359.4210   0.7000 14.97118061175823
OPTICUBE 04             
1 41851U 16067D   20031.23085400  .00000523  00000-0  50878-4 0  9999
2 41851  97.9192 136.6571 0008530   1.0669 359.0569 14.96876106175801
AEROCUBE 8D             
1 41852U 16067E   20031.24421691  .00000597  00000-0  57403-4 0  9999
2 41852  97.9207 136.4997 0009422   1.3818 358.7427 14.96834793175781
AEROCUBE 8C             
1 41853U 16067F   20031.27250534 -.00000177  00000-0 -10175-4 0  9990
2 41853  97.9198 136.4460 0009889 358.9384   1.1814 14.96794542175788
PROMETHEUS 2-1          
1 41854U 16067G   20031.26969418 -.00000169  00000-0 -93259-5 0  9994
2 41854  97.9208 136.6895 0010174 357.8950   2.2226 14.97073012175794
PROMETHEUS 2-3          
1 41855U 16067H   20031.27103708 -.00000107  00000-0 -40026-5 0  9994
2 41855  97.9210 136.7164 0010336 358.0404   2.0775 14.97081775175797
INS-1B                  
1 41954U 17008G   20030.33671184  .00000996  00000-0  43429-4 0  9997
2 41954  97.3731  97.1243 0010693  75.1423 285.0998 15.24435203164171
BGUSAT                  
1 41999U 17008BD  20030.43789528  .00001726  00000-0  67987-4 0  9996
2 41999  97.3827 100.6309 0009642  84.5567 275.6771 15.26924761163733
DIDO-2                  
1 42000U 17008BE  20031.45875245  .00000771  00000-0  34467-4 0  9991
2 42000  97.3739  98.7707 0010180  87.5426 272.6976 15.24248115163749
PEASSS                  
1 42015U 17008BV  20031.46983497  .00001036  00000-0  43961-4 0  9991
2 42015  97.3757 100.1171 0008040  91.4022 268.8137 15.25306747164313
AL-FARABI 1             
1 42016U 17008BW  20030.44844035  .00001190  00000-0  48988-4 0  9998
2 42016  97.3782  99.9391 0007876  93.4995 266.7145 15.26057589164323
NAYIF-1 (EO-88)         
1 42017U 17008BX  20030.43072388  .00001173  00000-0  48275-4 0  9992
2 42017  97.3778  99.9335 0007897  93.4262 266.7880 15.26094944164341
NSIGHT                  
1 42726U 98067MF  20030.93062652  .00078811  00000-0  30887-3 0  9993
2 42726  51.6289 221.5900 0002162 297.7564  62.3221 15.86262004153520
UCLSAT                  
1 42765U 17036A   20031.41340200  .00001115  00000-0  49986-4 0  9999
2 42765  97.3218  89.2338 0012323 145.7594 214.4440 15.23204542144977
LITUANICASAT-2          
1 42768U 17036D   20031.16761985  .00001857  00000-0  80398-4 0  9996
2 42768  97.3265  88.7798 0015998 139.0875 221.1566 15.23539611144786
AALTO-1                 
1 42775U 17036L   20031.29845151  .00000665  00000-0  32384-4 0  9994
2 42775  97.3196  87.3145 0015003 140.0090 220.2254 15.21635766144663
URSA MAIOR              
1 42776U 17036M   20031.43487161  .00000744  00000-0  35703-4 0  9990
2 42776  97.3208  87.6752 0014848 139.3859 220.8488 15.21796805144695
COMPASS 2               
1 42777U 17036N   20031.31258100  .00001469  00000-0  64367-4 0  9990
2 42777  97.3258  89.3776 0013540 138.7658 221.4605 15.23496628144762
DIAMOND RED             
1 42783U 17036U   20031.41359841  .00000860  00000-0  39942-4 0  9997
2 42783  97.3218  88.6379 0012994 147.6928 212.5107 15.22573389144742
PEGASUS                 
1 42784U 17036V   20030.42582232  .00000874  00000-0  40128-4 0  9993
2 42784  97.3223  88.0136 0012807 150.0350 210.1623 15.22914600144612
DIAMOND GREEN           
1 42785U 17036W   20031.34669239  .00000877  00000-0  40660-4 0  9993
2 42785  97.3220  88.6036 0012879 148.4354 211.7658 15.22574807144727
DIAMOND BLUE            
1 42786U 17036X   20031.28016564  .00000869  00000-0  40308-4 0  9994
2 42786  97.3220  88.5353 0012707 148.7990 211.4004 15.22573272144714
NUDTSAT                 
1 42787U 17036Y   20031.38347991  .00001261  00000-0  54749-4 0  9998
2 42787  97.3268  90.0442 0010989 139.8065 220.3986 15.24084459144666
SUCHAI                  
1 42788U 17036Z   20031.41722317  .00001185  00000-0  52601-4 0  9992
2 42788  97.3229  89.4477 0012477 145.4201 214.7850 15.23409864144862
SKCUBE                  
1 42789U 17036AA  20030.39904904  .00000964  00000-0  43541-4 0  9990
2 42789  97.3225  88.3463 0012254 148.8454 211.3512 15.23273840144627
VZLUSAT-1               
1 42790U 17036AB  20030.18967920  .00001256  00000-0  54554-4 0  9997
2 42790  97.3246  88.8731 0011822 147.7448 212.4515 15.24068619144639
ROBUSTA-1B              
1 42792U 17036AD  20031.15793947  .00001073  00000-0  47875-4 0  9998
2 42792  97.3225  89.2961 0011883 146.6361 213.5628 15.23456993144763
CICERO 6                
1 42793U 17036AE  20031.28734825  .00000748  00000-0  34791-4 0  9994
2 42793  97.3205  88.9946 0011134 147.7874 212.4045 15.22908074144831
D-SAT                   
1 42794U 17036AF  20031.35126635  .00000114  00000-0  14997-4 0  9990
2 42794  97.5119  70.7116 0127857 105.7413 255.7951 14.91210322142111
CORVUS BC2              
1 42846U 17042X   20031.22571668  .00000251  00000-0  30011-4 0  9998
2 42846  97.5420 280.8484 0010288  27.7774 332.3993 14.92053902138795
CORVUS BC1              
1 42847U 17042Y   20031.23076416  .00000302  00000-0  34910-4 0  9990
2 42847  97.5422 280.9980 0009921  27.3107 332.8632 14.92154965138794
MIRATA                  
1 43015U 17073C   20031.30278707  .00000622  00000-0  53207-4 0  9992
2 43015  97.7230 308.7624 0254972 138.8970 223.1764 14.79378156118790
MAKERSAT 0              
1 43016U 17073D   20031.29455773  .00000420  00000-0  37592-4 0  9996
2 43016  97.7265 308.9533 0257550 139.6681 222.3951 14.79022017118772
ASTERIA                 
1 43020U 98067NH  20030.67615609  .00053629  00000-0  21858-3 0  9996
2 43020  51.6389 235.3131 0001902 256.5835 103.4957 15.85604944125505
DELLINGR (RBLE)         
1 43021U 98067NJ  20031.47226354  .00012473  00000-0  11913-3 0  9994
2 43021  51.6357 263.1251 0001489 220.8089 139.2796 15.67167146125201
AEROCUBE 7B (OCSD B)    
1 43042U 17071F   20031.35994200  .00003986  00000-0  99565-4 0  9991
2 43042  51.6385  23.6761 0003854 261.5139  98.5410 15.42581633121059
AEROCUBE 7C (OCSD C)    
1 43043U 17071G   20031.42593964  .00004000  00000-0  99940-4 0  9997
2 43043  51.6385  23.3814 0004090 266.5526  93.4992 15.42560345121038
CHEFSAT                 
1 43044U 17071H   20030.44120964  .00007832  00000-0  16446-3 0  9990
2 43044  51.6394  17.7646 0003726 266.1718  93.8843 15.46338728121023
ASGARDIA 1              
1 43049U 17071N   20031.49030125  .00003878  00000-0  96869-4 0  9994
2 43049  51.6397  22.3673 0001780 290.4911  69.5883 15.42656894121045
ISARA                   
1 43050U 17071P   20031.31558655  .00007402  00000-0  15975-3 0  9995
2 43050  51.6378  15.2687 0001557 291.5124  68.5696 15.45615293121123
PROPCUBE 2 (FAUNA)      
1 43052U 17071R   20031.25455681  .00004589  00000-0  11154-3 0  9993
2 43052  51.6393  22.3120 0001677 284.4354  75.6446 15.43028224121023
CORVUS BC3              
1 43118U 18004H   20031.34513672  .00000722  00000-0  33578-4 0  9998
2 43118  97.4609 102.6479 0010665 168.6475 191.5004 15.23151969113971
MICROMAS-2A             
1 43131U 18004W   20031.46544945  .00001765  00000-0  74042-4 0  9992
2 43131  97.4647 104.0457 0009606 167.4319 192.7160 15.24797702114066
SPACEBEE-4              
1 43139U 18004AE  20031.21334861  .00002671  00000-0  10704-3 0  9998
2 43139  97.4670 104.6681 0008980 169.0569 191.0866 15.25889868114065
SPACEBEE-3              
1 43140U 18004AF  20031.23150453  .00003292  00000-0  12841-3 0  9999
2 43140  97.4682 105.1744 0008850 168.0102 192.1349 15.26622483114106
SPACEBEE-2              
1 43141U 18004AG  20031.43285853  .00003525  00000-0  13626-3 0  9996
2 43141  97.4694 105.5532 0008849 166.8987 193.2484 15.26873861114148
SPACEBEE-1              
1 43142U 18004AH  20031.42955884  .00004089  00000-0  15623-3 0  9999
2 43142  97.4696 105.7366 0008866 166.7862 193.3611 15.27160789114140
CICERO 7                
1 43143U 18004AJ  20031.34111631  .00001627  00000-0  68322-4 0  9995
2 43143  97.4629 104.1263 0007551 174.5822 185.5499 15.24883368114069
GOMX-4B                 
1 43196U 18015E   20031.41962492  .00000344  00000-0  17067-4 0  9997
2 43196  97.4179 161.2146 0017695 226.9051 133.0705 15.24125179110879
GOMX-4A                 
1 43197U 18015F   20031.46204515  .00000707  00000-0  31798-4 0  9998
2 43197  97.4171 161.3081 0017761 227.3096 201.1561 15.24296242110898
1KUNS-PF                
1 43466U 98067NP  20031.48192453  .00056741  00000-0  32302-3 0  9991
2 43466  51.6316 254.7718 0001252 188.0318 172.0663 15.78389847 98574
UBAKUSAT                
1 43467U 98067NQ  20031.22192616  .00021091  00000-0  18404-3 0  9992
2 43467  51.6340 269.6372 0001963 183.4967 176.6016 15.68926850 98360
